UNKNOWN                 
1 81816U          26059.10913087  .00001799  00000+0  13539-2 0  9993
2 81816  66.2382 103.1954 0174437 204.2113 155.0693 13.89737685620098
UNKNOWN                 
1 81819U          26062.23835709  .00000945  00000+0  66933-2 0  9996
2 81819 102.1700 165.5283 0031486 318.6668  41.2018 12.47839495558051
UNKNOWN                 
1 81824U          26062.55772931  .00006225  00000+0  21225-2 0  9996
2 81824  65.8420 116.4700 0048733 293.4702  66.1273 14.36401021636193
UNKNOWN                 
1 81833U          26058.60605399  .00000361  00000+0  12831-2 0  9998
2 81833  90.2474   4.5952 0025562 178.1702 181.9514 12.93758862462453
UNKNOWN                 
1 81838U          26060.99364749  .00008287  00000+0  17870-2 0  9992
2 81838  67.7590  58.9263 0044947 293.2206  97.6419 14.58151526644883
UNKNOWN                 
1 81844U          26062.39711641  .00009706  00000+0  34129-2 0  9995
2 81844  82.9101 216.3990 0060500 264.2653  95.1635 14.33796304634447
UNKNOWN                 
1 81845U          26061.99031308  .00002622  00000+0  28818-3 0  9995
2 81845  97.6772 251.1443 0087772  41.5646 110.5282 14.85679123661438
UNKNOWN                 
1 81864U          26055.04256812  .00000857  00000+0  35029-3 0  9994
2 81864  65.6691 255.4865 0767897 341.5164  15.9318 13.32743434560603
UNKNOWN                 
1 81865U          26061.70683106  .00001224  00000+0  99507-3 0  9995
2 81865  82.8070 326.9405 0061746 135.3109 254.5664 13.88257813619644
UNKNOWN                 
1 81893U          26060.42275899  .00001121  00000+0  11856-2 0  9996
2 81893 100.0568  53.1007 0021877  67.2791 293.0666 13.76891001614902
UNKNOWN                 
1 81899U          26060.22476083  .00001614  00000+0  38261-2 0  9994
2 81899 102.4116 181.1738 0170706  49.3869 312.1948 13.20444436589349
UNKNOWN                 
1 81921U          26062.08620288  .00001918  00000+0  80283-3 0  9993
2 81921  65.7062 230.7222 0843493  79.7316 289.7632 13.15432327 36356
UNKNOWN                 
1 81946U          26058.84740345  .00000111  00000+0  53335-3 0  9998
2 81946  66.4234   4.3155 0677665 314.2110  69.7902 12.42640677557461
UNKNOWN                 
1 81947U          26046.26945096  .00005449  00000+0  53381-3 0  9992
2 81947  66.0766 348.0426 0369403 102.1488 262.1248 14.53455041640397
UNKNOWN                 
1 81964U          26060.41888298  .00000285  00000+0  26528-3 0  9990
2 81964  66.5838  63.3762 0032997  23.1591 337.0967 13.95852229625020
UNKNOWN                 
1 81969U          26062.42138690  .00012230  00000+0  68831-3 0  9998
2 81969  86.6835 118.3770 0003180 201.5410 158.5696 15.13136350452361
UNKNOWN                 
1 81995U          26051.07796973  .00003706  00000+0  69737-3 0  9994
2 81995  65.7468 302.4623 0517247 262.9812  91.2196 14.04877272613961
