[{"OBJECT_NAME":"UNKNOWN","OBJECT_ID":"","EPOCH":"2026-02-28T02:37:08.907168","MEAN_MOTION":13.89737685,"ECCENTRICITY":0.0174437,"INCLINATION":66.2382,"RA_OF_ASC_NODE":103.1954,"ARG_OF_PERICENTER":204.2113,"MEAN_ANOMALY":155.0693,"EPHEMERIS_TYPE":0,"CLASSIFICATION_TYPE":"U","NORAD_CAT_ID":81816,"ELEMENT_SET_NO":999,"REV_AT_EPOCH":62009,"BSTAR":0.0013539,"MEAN_MOTION_DOT":1.799e-5,"MEAN_MOTION_DDOT":0},{"OBJECT_NAME":"UNKNOWN","OBJECT_ID":"","EPOCH":"2026-03-03T05:43:14.052576","MEAN_MOTION":12.47839495,"ECCENTRICITY":0.0031486,"INCLINATION":102.17,"RA_OF_ASC_NODE":165.5283,"ARG_OF_PERICENTER":318.6668,"MEAN_ANOMALY":41.2018,"EPHEMERIS_TYPE":0,"CLASSIFICATION_TYPE":"U","NORAD_CAT_ID":81819,"ELEMENT_SET_NO":999,"REV_AT_EPOCH":55805,"BSTAR":0.0066933,"MEAN_MOTION_DOT":9.45e-6,"MEAN_MOTION_DDOT":0},{"OBJECT_NAME":"UNKNOWN","OBJECT_ID":"","EPOCH":"2026-03-03T13:23:07.812384","MEAN_MOTION":14.36401021,"ECCENTRICITY":0.0048733,"INCLINATION":65.842,"RA_OF_ASC_NODE":116.47,"ARG_OF_PERICENTER":293.4702,"MEAN_ANOMALY":66.1273,"EPHEMERIS_TYPE":0,"CLASSIFICATION_TYPE":"U","NORAD_CAT_ID":81824,"ELEMENT_SET_NO":999,"REV_AT_EPOCH":63619,"BSTAR":0.0021225,"MEAN_MOTION_DOT":6.225e-5,"MEAN_MOTION_DDOT":0},{"OBJECT_NAME":"UNKNOWN","OBJECT_ID":"","EPOCH":"2026-02-27T14:32:43.064736","MEAN_MOTION":12.93758862,"ECCENTRICITY":0.0025562,"INCLINATION":90.2474,"RA_OF_ASC_NODE":4.5952,"ARG_OF_PERICENTER":178.1702,"MEAN_ANOMALY":181.9514,"EPHEMERIS_TYPE":0,"CLASSIFICATION_TYPE":"U","NORAD_CAT_ID":81833,"ELEMENT_SET_NO":999,"REV_AT_EPOCH":46245,"BSTAR":0.0012831,"MEAN_MOTION_DOT":3.61e-6,"MEAN_MOTION_DDOT":0},{"OBJECT_NAME":"UNKNOWN","OBJECT_ID":"","EPOCH":"2026-03-01T23:50:51.143136","MEAN_MOTION":14.58151526,"ECCENTRICITY":0.0044947,"INCLINATION":67.759,"RA_OF_ASC_NODE":58.9263,"ARG_OF_PERICENTER":293.2206,"MEAN_ANOMALY":97.6419,"EPHEMERIS_TYPE":0,"CLASSIFICATION_TYPE":"U","NORAD_CAT_ID":81838,"ELEMENT_SET_NO":999,"REV_AT_EPOCH":64488,"BSTAR":0.001787,"MEAN_MOTION_DOT":8.287e-5,"MEAN_MOTION_DDOT":0},{"OBJECT_NAME":"UNKNOWN","OBJECT_ID":"","EPOCH":"2026-03-03T09:31:50.857824","MEAN_MOTION":14.33796304,"ECCENTRICITY":0.00605,"INCLINATION":82.9101,"RA_OF_ASC_NODE":216.399,"ARG_OF_PERICENTER":264.2653,"MEAN_ANOMALY":95.1635,"EPHEMERIS_TYPE":0,"CLASSIFICATION_TYPE":"U","NORAD_CAT_ID":81844,"ELEMENT_SET_NO":999,"REV_AT_EPOCH":63444,"BSTAR":0.0034129,"MEAN_MOTION_DOT":9.706e-5,"MEAN_MOTION_DDOT":0},{"OBJECT_NAME":"UNKNOWN","OBJECT_ID":"","EPOCH":"2026-03-02T23:46:03.050112","MEAN_MOTION":14.85679123,"ECCENTRICITY":0.0087772,"INCLINATION":97.6772,"RA_OF_ASC_NODE":251.1443,"ARG_OF_PERICENTER":41.5646,"MEAN_ANOMALY":110.5282,"EPHEMERIS_TYPE":0,"CLASSIFICATION_TYPE":"U","NORAD_CAT_ID":81845,"ELEMENT_SET_NO":999,"REV_AT_EPOCH":66143,"BSTAR":0.00028818,"MEAN_MOTION_DOT":2.622e-5,"MEAN_MOTION_DDOT":0},{"OBJECT_NAME":"UNKNOWN","OBJECT_ID":"","EPOCH":"2026-02-24T01:01:17.885568","MEAN_MOTION":13.32743434,"ECCENTRICITY":0.0767897,"INCLINATION":65.6691,"RA_OF_ASC_NODE":255.4865,"ARG_OF_PERICENTER":341.5164,"MEAN_ANOMALY":15.9318,"EPHEMERIS_TYPE":0,"CLASSIFICATION_TYPE":"U","NORAD_CAT_ID":81864,"ELEMENT_SET_NO":999,"REV_AT_EPOCH":56060,"BSTAR":0.00035029,"MEAN_MOTION_DOT":8.57e-6,"MEAN_MOTION_DDOT":0},{"OBJECT_NAME":"UNKNOWN","OBJECT_ID":"","EPOCH":"2026-03-02T16:57:50.203584","MEAN_MOTION":13.88257813,"ECCENTRICITY":0.0061746,"INCLINATION":82.807,"RA_OF_ASC_NODE":326.9405,"ARG_OF_PERICENTER":135.3109,"MEAN_ANOMALY":254.5664,"EPHEMERIS_TYPE":0,"CLASSIFICATION_TYPE":"U","NORAD_CAT_ID":81865,"ELEMENT_SET_NO":999,"REV_AT_EPOCH":61964,"BSTAR":0.00099507,"MEAN_MOTION_DOT":1.224e-5,"MEAN_MOTION_DDOT":0},{"OBJECT_NAME":"UNKNOWN","OBJECT_ID":"","EPOCH":"2026-03-01T10:08:46.376736","MEAN_MOTION":13.76891001,"ECCENTRICITY":0.0021877,"INCLINATION":100.0568,"RA_OF_ASC_NODE":53.1007,"ARG_OF_PERICENTER":67.2791,"MEAN_ANOMALY":293.0666,"EPHEMERIS_TYPE":0,"CLASSIFICATION_TYPE":"U","NORAD_CAT_ID":81893,"ELEMENT_SET_NO":999,"REV_AT_EPOCH":61490,"BSTAR":0.0011856,"MEAN_MOTION_DOT":1.121e-5,"MEAN_MOTION_DDOT":0},{"OBJECT_NAME":"UNKNOWN","OBJECT_ID":"","EPOCH":"2026-03-01T05:23:39.335712","MEAN_MOTION":13.20444436,"ECCENTRICITY":0.0170706,"INCLINATION":102.4116,"RA_OF_ASC_NODE":181.1738,"ARG_OF_PERICENTER":49.3869,"MEAN_ANOMALY":312.1948,"EPHEMERIS_TYPE":0,"CLASSIFICATION_TYPE":"U","NORAD_CAT_ID":81899,"ELEMENT_SET_NO":999,"REV_AT_EPOCH":58934,"BSTAR":0.0038261,"MEAN_MOTION_DOT":1.614e-5,"MEAN_MOTION_DDOT":0},{"OBJECT_NAME":"UNKNOWN","OBJECT_ID":"","EPOCH":"2026-03-03T02:04:07.928832","MEAN_MOTION":13.15432327,"ECCENTRICITY":0.0843493,"INCLINATION":65.7062,"RA_OF_ASC_NODE":230.7222,"ARG_OF_PERICENTER":79.7316,"MEAN_ANOMALY":289.7632,"EPHEMERIS_TYPE":0,"CLASSIFICATION_TYPE":"U","NORAD_CAT_ID":81921,"ELEMENT_SET_NO":999,"REV_AT_EPOCH":3635,"BSTAR":0.00080283,"MEAN_MOTION_DOT":1.918e-5,"MEAN_MOTION_DDOT":0},{"OBJECT_NAME":"UNKNOWN","OBJECT_ID":"","EPOCH":"2026-02-27T20:20:15.658080","MEAN_MOTION":12.42640677,"ECCENTRICITY":0.0677665,"INCLINATION":66.4234,"RA_OF_ASC_NODE":4.3155,"ARG_OF_PERICENTER":314.211,"MEAN_ANOMALY":69.7902,"EPHEMERIS_TYPE":0,"CLASSIFICATION_TYPE":"U","NORAD_CAT_ID":81946,"ELEMENT_SET_NO":999,"REV_AT_EPOCH":55746,"BSTAR":0.00053335,"MEAN_MOTION_DOT":1.11e-6,"MEAN_MOTION_DDOT":0},{"OBJECT_NAME":"UNKNOWN","OBJECT_ID":"","EPOCH":"2026-02-15T06:28:00.562944","MEAN_MOTION":14.53455041,"ECCENTRICITY":0.0369403,"INCLINATION":66.0766,"RA_OF_ASC_NODE":348.0426,"ARG_OF_PERICENTER":102.1488,"MEAN_ANOMALY":262.1248,"EPHEMERIS_TYPE":0,"CLASSIFICATION_TYPE":"U","NORAD_CAT_ID":81947,"ELEMENT_SET_NO":999,"REV_AT_EPOCH":64039,"BSTAR":0.00053381,"MEAN_MOTION_DOT":5.449e-5,"MEAN_MOTION_DDOT":0},{"OBJECT_NAME":"UNKNOWN","OBJECT_ID":"","EPOCH":"2026-03-01T10:03:11.489472","MEAN_MOTION":13.95852229,"ECCENTRICITY":0.0032997,"INCLINATION":66.5838,"RA_OF_ASC_NODE":63.3762,"ARG_OF_PERICENTER":23.1591,"MEAN_ANOMALY":337.0967,"EPHEMERIS_TYPE":0,"CLASSIFICATION_TYPE":"U","NORAD_CAT_ID":81964,"ELEMENT_SET_NO":999,"REV_AT_EPOCH":62502,"BSTAR":0.00026528,"MEAN_MOTION_DOT":2.85e-6,"MEAN_MOTION_DDOT":0},{"OBJECT_NAME":"UNKNOWN","OBJECT_ID":"","EPOCH":"2026-03-03T10:06:47.828160","MEAN_MOTION":15.1313635,"ECCENTRICITY":0.000318,"INCLINATION":86.6835,"RA_OF_ASC_NODE":118.377,"ARG_OF_PERICENTER":201.541,"MEAN_ANOMALY":158.5696,"EPHEMERIS_TYPE":0,"CLASSIFICATION_TYPE":"U","NORAD_CAT_ID":81969,"ELEMENT_SET_NO":999,"REV_AT_EPOCH":45236,"BSTAR":0.00068831,"MEAN_MOTION_DOT":0.0001223,"MEAN_MOTION_DDOT":0},{"OBJECT_NAME":"UNKNOWN","OBJECT_ID":"","EPOCH":"2026-02-20T01:52:16.584672","MEAN_MOTION":14.04877272,"ECCENTRICITY":0.0517247,"INCLINATION":65.7468,"RA_OF_ASC_NODE":302.4623,"ARG_OF_PERICENTER":262.9812,"MEAN_ANOMALY":91.2196,"EPHEMERIS_TYPE":0,"CLASSIFICATION_TYPE":"U","NORAD_CAT_ID":81995,"ELEMENT_SET_NO":999,"REV_AT_EPOCH":61396,"BSTAR":0.00069737,"MEAN_MOTION_DOT":3.706e-5,"MEAN_MOTION_DDOT":0}]
